ONEWEB-0055             
1 45443U 20020V   22203.19205338  .00000568  00000+0  15666-2 0  9998
2 45443  87.8877 304.5275 0002202 104.3361 255.8011 13.11418202115717
ONEWEB-0093             
1 45444U 20020W   22203.24366297 -.00000337  00000+0 -98775-3 0  9996
2 45444  87.8867 304.5378 0002241 104.8062 255.3314 13.11419522115781
ONEWEB-0029             
1 45445U 20020X   22203.26500367  .00000554  00000+0  15265-2 0  9998
2 45445  87.8871 304.5193 0001937 113.0259 247.1074 13.11419436115767
ONEWEB-0068             
1 45446U 20020Y   22203.23580993 -.00000462  00000+0 -13400-2 0  9998
2 45446  87.8867 304.5361 0002343 108.6275 251.5107 13.11418596115706
ONEWEB-0046             
1 45447U 20020Z   22203.76650896 -.00000576  00000+0 -16619-2 0  9998
2 45447  87.8865 304.4400 0001812 102.6370 257.4961 13.11416956115787
ONEWEB-0063             
1 45448U 20020AA  22203.26161788  .00000369  00000+0  10045-2 0  9996
2 45448  87.8863 304.5254 0001686  99.2503 260.8816 13.11419203115800
ONEWEB-0019             
1 45449U 20020AB  22203.23692288 -.00000436  00000+0 -12652-2 0  9991
2 45449  87.8872 304.5301 0002029  98.4404 261.6954 13.11419197115643
ONEWEB-0094             
1 45450U 20020AC  22203.46474645  .00000046  00000+0  84412-4 0  9993
2 45450  87.9063 289.1550 0002090  98.7438 261.3930 13.17646948118556
ONEWEB-0087             
1 45451U 20020AD  22203.19429758  .00000608  00000+0  16783-2 0  9997
2 45451  87.8874 304.5775 0002007 114.0059 246.1279 13.11417625115697
ONEWEB-0082             
1 45452U 20020AE  22203.50173065  .00000632  00000+0  17479-2 0  9990
2 45452  87.8866 304.4475 0002380 111.7946 248.3435 13.11416372115829
ONEWEB-0050             
1 45453U 20020AF  22203.79464645  .00001955  00000+0  16579-3 0  9999
2 45453  87.5374 229.6984 0029047  82.9462 277.5072 14.97063603127560
ONEWEB-0034             
1 45454U 20020AG  22203.51968141  .00000104  00000+0  25872-3 0  9991
2 45454  87.8864 304.4651 0001988 107.5350 252.5995 13.11414949115747
ONEWEB-0060             
1 45455U 20020AH  22203.52752842 -.00000202  00000+0 -60631-3 0  9995
2 45455  87.8866 304.4731 0001900 103.6080 256.5260 13.11412658115700
ONEWEB-0086             
1 45456U 20020AJ  22203.24141023 -.00000378  00000+0 -11027-2 0  9996
2 45456  87.8868 304.5223 0002109 108.1934 251.9424 13.11419124115717
ONEWEB-0088             
1 45457U 20020AK  22203.52192650 -.00000031  00000+0 -12199-3 0  9998
2 45457  87.8861 304.4784 0001850 107.4525 252.6806 13.11415851115683
ONEWEB-0102             
1 47258U 20100A   22203.49939466  .00000450  00000+0  12162-2 0  9990
2 47258  87.8849 273.9069 0002423  93.9154 266.2251 13.12444555 77721
ONEWEB-0109             
1 47259U 20100B   22203.43374960  .00000111  00000+0  27227-3 0  9990
2 47259  87.8889 273.9790 0002105 100.2015 259.9351 13.12442731 77546
ONEWEB-0110             
1 47260U 20100C   22203.45703393 -.00000388  00000+0 -11151-2 0  9996
2 47260  87.8899 273.9466 0002358  99.3311 260.8084 13.12441977 77710
ONEWEB-0111             
1 47261U 20100D   22203.48879277  .00000459  00000+0  12391-2 0  9999
2 47261  87.8874 273.9328 0002303  95.5549 264.5842 13.12445081 77557
ONEWEB-0114             
1 47262U 20100E   22203.44433289 -.00000199  00000+0 -58960-3 0  9991
2 47262  87.8935 273.9408 0002344  81.4651 278.6743 13.12441453 77508
ONEWEB-0117             
1 47263U 20100F   22203.20715839  .00000023  00000+0  28481-4 0  9990
2 47263  87.8892 274.0269 0002127 102.5668 257.5699 13.12440130 77484
ONEWEB-0118             
1 47264U 20100G   22203.46761921 -.00000187  00000+0 -55585-3 0  9999
2 47264  87.8894 273.9268 0001828  74.5680 285.5650 13.12444599 77710
ONEWEB-0119             
1 47265U 20100H   22203.49514688  .00000411  00000+0  11083-2 0  9991
2 47265  87.8847 273.9105 0002121 101.4478 258.6889 13.12444052 77697
ONEWEB-0120             
1 47266U 20100J   22203.44856942 -.00000295  00000+0 -85501-3 0  9998
2 47266  87.8921 274.0300 0002045  87.2057 272.9306 13.12442752 77710
ONEWEB-0121             
1 47267U 20100K   22203.43163153  .00000225  00000+0  58879-3 0  9992
2 47267  87.8890 274.0535 0002089 104.2461 255.8899 13.12442805 77629
ONEWEB-0122             
1 47268U 20100L   22203.42527240  .00000354  00000+0  94721-3 0  9992
2 47268  87.8876 273.9669 0002271  95.5203 264.6184 13.12441810 77539
ONEWEB-0123             
1 47269U 20100M   22203.49728604  .00000455  00000+0  12281-2 0  9999
2 47269  87.8863 273.9192 0002037  98.9305 261.2054 13.12441910 77683
ONEWEB-0124             
1 47270U 20100N   22203.56081475  .00000375  00000+0  10069-2 0  9990
2 47270  87.8966 273.9127 0002222 109.1501 250.9868 13.12444953 77572
ONEWEB-0125             
1 47271U 20100P   22203.15632920 -.00000329  00000+0 -94898-3 0  9997
2 47271  87.8862 274.0473 0002054  94.0415 266.0948 13.12444099 77582
ONEWEB-0126             
1 47272U 20100Q   22203.48774584  .00000470  00000+0  12723-2 0  9998
2 47272  87.8873 273.9758 0002188  93.3222 266.8157 13.12442859 77699
ONEWEB-0127             
1 47273U 20100R   22203.45068717 -.00000374  00000+0 -10744-2 0  9996
2 47273  87.8892 273.8906 0002103  96.4072 263.7296 13.12443636 77716
ONEWEB-0128             
1 47274U 20100S   22203.16689982 -.00000018  00000+0 -84649-4 0  9990
2 47274  87.8897 273.9873 0002508 103.3867 256.7541 13.12445406 77694
ONEWEB-0129             
1 47275U 20100T   22203.45279616 -.00000392  00000+0 -11258-2 0  9991
2 47275  87.8898 273.9875 0003066  61.9328 298.2110 13.12442996 77660
ONEWEB-0130             
1 47276U 20100U   22203.55445492  .00000146  00000+0  37018-3 0  9998
2 47276  87.8896 273.9603 0002187  98.6262 261.5115 13.12442904 77640
ONEWEB-0131             
1 47277U 20100V   22203.47609274  .00000072  00000+0  16370-3 0  9996
2 47277  87.8896 273.9221 0002165 103.1658 256.9712 13.12444472 77670
ONEWEB-0132             
1 47278U 20100W   22203.42950373  .00000303  00000+0  80584-3 0  9996
2 47278  87.8857 273.9470 0002181  90.0342 270.1036 13.12440067 77567
ONEWEB-0133             
1 47279U 20100X   22203.21773861 -.00000277  00000+0 -80654-3 0  9999
2 47279  87.8890 273.9559 0002165 100.5705 259.5668 13.12442834 77695
ONEWEB-0134             
1 47280U 20100Y   22203.49092331  .00000463  00000+0  12512-2 0  9999
2 47280  87.8904 273.9183 0002427  97.6661 262.4743 13.12441316 77707
ONEWEB-0135             
1 47281U 20100Z   22203.45914603 -.00000365  00000+0 -10503-2 0  9992
2 47281  87.8890 273.8952 0002238  96.5177 263.6206 13.12440265 77726
ONEWEB-0136             
1 47282U 20100AA  22203.55657163  .00000226  00000+0  59178-3 0  9995
2 47282  87.8907 273.9647 0003084  93.9575 266.1906 13.12444363 77662
ONEWEB-0137             
1 47283U 20100AB  22203.44009095 -.00000046  00000+0 -16444-3 0  9990
2 47283  87.8892 273.9565 0002090  92.5545 267.5822 13.12443625 77553
ONEWEB-0138             
1 47284U 20100AC  22203.49304699  .00000483  00000+0  13078-2 0  9996
2 47284  87.8881 273.9621 0002273  95.9905 264.1482 13.12442541 77646
ONEWEB-0139             
1 47285U 20100AD  22203.46550735 -.00000190  00000+0 -56485-3 0  9995
2 47285  87.8871 274.0087 0002434  99.5812 260.5591 13.12443697 77712
ONEWEB-0140             
1 47286U 20100AE  22203.48668457  .00000478  00000+0  12919-2 0  9999
2 47286  87.8871 273.9388 0002277  96.3566 263.7822 13.12442731 77687
ONEWEB-0141             
1 47287U 20100AF  22203.43266737  .00000110  00000+0  27142-3 0  9998
2 47287  87.8900 273.9390 0001897  83.9330 276.2014 13.12442908 77668
ONEWEB-0142             
1 47288U 20100AG  22203.19551597  .00000387  00000+0  10416-2 0  9994
2 47288  87.8861 274.0506 0002010  90.4091 269.7268 13.12441956 77627
ONEWEB-0143             
1 47289U 20100AH  22203.45492048 -.00000450  00000+0 -12852-2 0  9998
2 47289  87.8893 273.9500 0001993 102.2149 257.9203 13.12443958 77633
ONEWEB-0144             
1 47290U 20100AJ  22203.65610331  .00000315  00000+0  84078-3 0  9997
2 47290  87.8884 273.9260 0002400  95.5476 264.5926 13.12442292 77589
ONEWEB-0145             
1 47291U 20100AK  22203.47397784 -.00000008  00000+0 -58365-4 0  9994
2 47291  87.8870 273.9132 0002088  96.1115 264.0251 13.12443029 77756
ONEWEB-0146             
1 47292U 20100AL  22203.46972734 -.00000378  00000+0 -10862-2 0  9996
2 47292  87.8892 273.9683 0001869 116.2779 243.8541 13.12444140 77660
ONEWEB-0147             
1 47293U 20100AM  22203.43797522 -.00000053  00000+0 -18368-3 0  9994
2 47293  87.8873 273.9511 0002584  95.4939 264.6484 13.12442204 77555
ONEWEB-0115             
1 48042U 21025A   22203.81695205 -.00000047  00000+0 -16486-3 0  9993
2 48042  87.9041 243.3160 0002233 100.1941 259.9440 13.13467555 66481
ONEWEB-0152             
1 48043U 21025B   22203.82815764 -.00000346  00000+0 -98373-3 0  9996
2 48043  87.8979 243.3387 0002357  96.6255 263.5142 13.13468148 66441
ONEWEB-0153             
1 48044U 21025C   22203.80575849  .00000167  00000+0  42308-3 0  9998
2 48044  87.8912 243.3861 0002112  92.4493 267.6877 13.13469207 66439
ONEWEB-0154             
1 48045U 21025D   22203.80352729  .00000168  00000+0  42520-3 0  9996
2 48045  87.9007 243.4229 0001914 100.0081 260.1264 13.13462907 66396
ONEWEB-0116             
1 48046U 21025E   22203.84607021 -.00000391  00000+0 -11070-2 0  9994
2 48046  87.9001 243.3978 0001929 104.3540 255.7803 13.13469342 66540
ONEWEB-0150             
1 48047U 21025F   22203.81919981 -.00000178  00000+0 -52192-3 0  9997
2 48047  87.9062 243.2798 0002052  84.4081 275.7282 13.13459263 66435
ONEWEB-0107             
1 48048U 21025G   22203.82145354 -.00000272  00000+0 -77986-3 0  9997
2 48048  87.9049 243.2989 0002322  80.8877 279.2515 13.13468292 66414
ONEWEB-0101             
1 48049U 21025H   22203.86177503  .00000210  00000+0  53984-3 0  9995
2 48049  87.9043 243.3115 0002352  89.6781 270.4617 13.13468483 66390
